{
  "type": "FeatureCollection",
  "features": [
    {
      "type": "Feature",
      "properties": {
        "norad_id": 66828,
        "name": "STARLINK-35982",
        "group": "last-30-days",
        "lat": 5.181705411236523,
        "lon": 6.429201399213128,
        "alt_km": 370.6718397399254,
        "timestamp": "2025-12-16T10:53:44.206522+00:00",
        "meta_object_name": "STARLINK-35982",
        "meta_object_id": "2025-280H",
        "meta_epoch": "2025-12-15T22:00:01.999584",
        "meta_mean_motion": 15.68896099,
        "meta_eccentricity": 0.00036795,
        "meta_inclination": 69.9987,
        "meta_ra_of_asc_node": 189.8271,
        "meta_arg_of_pericenter": 275.2198,
        "meta_mean_anomaly": 107.6645,
        "meta_ephemeris_type": 0,
        "meta_classification_type": "U",
        "meta_norad_cat_id": 66828,
        "meta_element_set_no": 999,
        "meta_rev_at_epoch": 340,
        "meta_bstar": -0.019070727,
        "meta_mean_motion_dot": -0.01947079,
        "meta_mean_motion_ddot": 0,
        "tle_line1": "1 66828U 25280H   25349.91668981 -.01947079  00000+0 -19071-1 0  9995",
        "tle_line2": "2 66828  69.9987 189.8271 0003679 275.2198 107.6645 15.68896099  3402"
      },
      "geometry": {
        "type": "Point",
        "coordinates": [
          6.429201399213128,
          5.181705411236523
        ]
      }
    },
    {
      "type": "Feature",
      "properties": {
        "norad_id": 66829,
        "name": "STARLINK-36084",
        "group": "last-30-days",
        "lat": 6.982138426178275,
        "lon": 5.767608353568312,
        "alt_km": 370.5948081529468,
        "timestamp": "2025-12-16T10:53:44.206533+00:00",
        "meta_object_name": "STARLINK-36084",
        "meta_object_id": "2025-280J",
        "meta_epoch": "2025-12-15T22:00:01.999584",
        "meta_mean_motion": 15.68895189,
        "meta_eccentricity": 0.00037615,
        "meta_inclination": 69.9984,
        "meta_ra_of_asc_node": 189.8294,
        "meta_arg_of_pericenter": 277.2792,
        "meta_mean_anomaly": 103.6908,
        "meta_ephemeris_type": 0,
        "meta_classification_type": "U",
        "meta_norad_cat_id": 66829,
        "meta_element_set_no": 999,
        "meta_rev_at_epoch": 325,
        "meta_bstar": -0.019075437,
        "meta_mean_motion_dot": -0.01947522,
        "meta_mean_motion_ddot": 0,
        "tle_line1": "1 66829U 25280J   25349.91668981 -.01947522  00000+0 -19075-1 0  9993",
        "tle_line2": "2 66829  69.9984 189.8294 0003761 277.2792 103.6908 15.68895189  3259"
      },
      "geometry": {
        "type": "Point",
        "coordinates": [
          5.767608353568312,
          6.982138426178275
        ]
      }
    },
    {
      "type": "Feature",
      "properties": {
        "norad_id": 66830,
        "name": "STARLINK-35881",
        "group": "last-30-days",
        "lat": 3.3792902262955273,
        "lon": 7.086702232638756,
        "alt_km": 370.8347026366346,
        "timestamp": "2025-12-16T10:53:44.206543+00:00",
        "meta_object_name": "STARLINK-35881",
        "meta_object_id": "2025-280K",
        "meta_epoch": "2025-12-15T22:00:01.999584",
        "meta_mean_motion": 15.68895842,
        "meta_eccentricity": 0.0003584,
        "meta_inclination": 69.9985,
        "meta_ra_of_asc_node": 189.8241,
        "meta_arg_of_pericenter": 275.2606,
        "meta_mean_anomaly": 109.5392,
        "meta_ephemeris_type": 0,
        "meta_classification_type": "U",
        "meta_norad_cat_id": 66830,
        "meta_element_set_no": 999,
        "meta_rev_at_epoch": 340,
        "meta_bstar": -0.019050949,
        "meta_mean_motion_dot": -0.01945179,
        "meta_mean_motion_ddot": 0,
        "tle_line1": "1 66830U 25280K   25349.91668981 -.01945179  00000+0 -19051-1 0  9995",
        "tle_line2": "2 66830  69.9985 189.8241 0003584 275.2606 109.5392 15.68895842  3404"
      },
      "geometry": {
        "type": "Point",
        "coordinates": [
          7.086702232638756,
          3.3792902262955273
        ]
      }
    },
    {
      "type": "Feature",
      "properties": {
        "norad_id": 66831,
        "name": "STARLINK-35788",
        "group": "last-30-days",
        "lat": 1.5818299031694807,
        "lon": 7.741637447443851,
        "alt_km": 371.1010621030855,
        "timestamp": "2025-12-16T10:53:44.206556+00:00",
        "meta_object_name": "STARLINK-35788",
        "meta_object_id": "2025-280L",
        "meta_epoch": "2025-12-15T22:00:01.999584",
        "meta_mean_motion": 15.68893567,
        "meta_eccentricity": 0.00037383,
        "meta_inclination": 69.9986,
        "meta_ra_of_asc_node": 189.8229,
        "meta_arg_of_pericenter": 276.932,
        "meta_mean_anomaly": 109.7877,
        "meta_ephemeris_type": 0,
        "meta_classification_type": "U",
        "meta_norad_cat_id": 66831,
        "meta_element_set_no": 999,
        "meta_rev_at_epoch": 340,
        "meta_bstar": -0.019061014,
        "meta_mean_motion_dot": -0.01946079,
        "meta_mean_motion_ddot": 0,
        "tle_line1": "1 66831U 25280L   25349.91668981 -.01946079  00000+0 -19061-1 0  9997",
        "tle_line2": "2 66831  69.9986 189.8229 0003738 276.9320 109.7877 15.68893567  3406"
      },
      "geometry": {
        "type": "Point",
        "coordinates": [
          7.741637447443851,
          1.5818299031694807
        ]
      }
    },
    {
      "type": "Feature",
      "properties": {
        "norad_id": 66832,
        "name": "STARLINK-35768",
        "group": "last-30-days",
        "lat": -0.22291012709210795,
        "lon": 8.395868367498625,
        "alt_km": 371.1673802004716,
        "timestamp": "2025-12-16T10:53:44.206568+00:00",
        "meta_object_name": "STARLINK-35768",
        "meta_object_id": "2025-280M",
        "meta_epoch": "2025-12-15T22:00:01.999584",
        "meta_mean_motion": 15.68892544,
        "meta_eccentricity": 0.00036228,
        "meta_inclination": 69.9983,
        "meta_ra_of_asc_node": 189.8196,
        "meta_arg_of_pericenter": 275.1388,
        "meta_mean_anomaly": 113.4971,
        "meta_ephemeris_type": 0,
        "meta_classification_type": "U",
        "meta_norad_cat_id": 66832,
        "meta_element_set_no": 999,
        "meta_rev_at_epoch": 340,
        "meta_bstar": -0.01901781,
        "meta_mean_motion_dot": -0.01941985,
        "meta_mean_motion_ddot": 0,
        "tle_line1": "1 66832U 25280M   25349.91668981 -.01941985  00000+0 -19018-1 0  9991",
        "tle_line2": "2 66832  69.9983 189.8196 0003622 275.1388 113.4971 15.68892544  3405"
      },
      "geometry": {
        "type": "Point",
        "coordinates": [
          8.395868367498625,
          -0.22291012709210795
        ]
      }
    },
    {
      "type": "Feature",
      "properties": {
        "norad_id": 66833,
        "name": "STARLINK-35858",
        "group": "last-30-days",
        "lat": -2.026351082604605,
        "lon": 9.050921720430193,
        "alt_km": 371.22673762770046,
        "timestamp": "2025-12-16T10:53:44.206578+00:00",
        "meta_object_name": "STARLINK-35858",
        "meta_object_id": "2025-280N",
        "meta_epoch": "2025-12-15T22:00:01.999584",
        "meta_mean_motion": 15.68890633,
        "meta_eccentricity": 0.00035898,
        "meta_inclination": 69.9981,
        "meta_ra_of_asc_node": 189.8174,
        "meta_arg_of_pericenter": 273.1639,
        "meta_mean_anomaly": 117.3877,
        "meta_ephemeris_type": 0,
        "meta_classification_type": "U",
        "meta_norad_cat_id": 66833,
        "meta_element_set_no": 999,
        "meta_rev_at_epoch": 340,
        "meta_bstar": -0.018958626,
        "meta_mean_motion_dot": -0.01936461,
        "meta_mean_motion_ddot": 0,
        "tle_line1": "1 66833U 25280N   25349.91668981 -.01936461  00000+0 -18959-1 0  9998",
        "tle_line2": "2 66833  69.9981 189.8174 0003589 273.1639 117.3877 15.68890633  3404"
      },
      "geometry": {
        "type": "Point",
        "coordinates": [
          9.050921720430193,
          -2.026351082604605
        ]
      }
    },
    {
      "type": "Feature",
      "properties": {
        "norad_id": 66834,
        "name": "STARLINK-35840",
        "group": "last-30-days",
        "lat": -3.8228829901914585,
        "lon": 9.704631469367389,
        "alt_km": 371.44326387875753,
        "timestamp": "2025-12-16T10:53:44.206588+00:00",
        "meta_object_name": "STARLINK-35840",
        "meta_object_id": "2025-280P",
        "meta_epoch": "2025-12-15T22:00:01.999584",
        "meta_mean_motion": 15.68896105,
        "meta_eccentricity": 0.00035808,
        "meta_inclination": 69.9983,
        "meta_ra_of_asc_node": 189.8148,
        "meta_arg_of_pericenter": 274.1467,
        "meta_mean_anomaly": 118.3199,
        "meta_ephemeris_type": 0,
        "meta_classification_type": "U",
        "meta_norad_cat_id": 66834,
        "meta_element_set_no": 999,
        "meta_rev_at_epoch": 340,
        "meta_bstar": -0.019075023,
        "meta_mean_motion_dot": -0.01947371,
        "meta_mean_motion_ddot": 0,
        "tle_line1": "1 66834U 25280P   25349.91668981 -.01947371  00000+0 -19075-1 0  9991",
        "tle_line2": "2 66834  69.9983 189.8148 0003580 274.1467 118.3199 15.68896105  3407"
      },
      "geometry": {
        "type": "Point",
        "coordinates": [
          9.704631469367389,
          -3.8228829901914585
        ]
      }
    }
  ]
}